NORAD_CAT_ID,OBJECT_NAME,OBJECT_TYPE,EPOCH,MEAN_MOTION,ECCENTRICITY,INCLINATION,RA_OF_ASC_NODE,ARG_OF_PERICENTER,MEAN_ANOMALY,BSTAR,MEAN_MOTION_DOT,MEAN_MOTION_DDOT,TLE_LINE0,TLE_LINE1,TLE_LINE2,SEMIMAJOR_AXIS,PERIOD,APOGEE,PERIGEE,DECAYED
52564.0,STARLINK-3959,PAYLOAD,2022-12-02 01:07:37,15.08842748,0.0002017,53.2161,92.5952,55.0296,305.0885,5.629300000000001e-05,6.08e-06,0.0,0 STARLINK-3959,1 52564U 22051AH  22336.04696065  .00000608  00000-0  56293-4 0  9997,2 52564  53.2161  92.5952 0002017  55.0296 305.0885 15.08842748 31247,6917.871999999999,95.437,541.132,538.342,0.0
52564.0,STARLINK-3959,PAYLOAD,2022-12-02 13:50:42,15.0883732,0.000179,53.2157,90.2161,52.9827,307.1329,-5.6947e-05,-1.194e-05,0.0,0 STARLINK-3959,1 52564U 22051AH  22336.57688292 -.00001194  00000-0 -56947-4 0  9997,2 52564  53.2157  90.2161 0001790  52.9827 307.1329 15.08837320 31259,6917.889,95.438,540.992,538.515,0.0
52564.0,STARLINK-3959,PAYLOAD,2022-12-02 20:12:15,15.08845474,0.0001836,53.2167,89.0268,51.8975,308.2182,1.8413e-05,5e-08,0.0,0 STARLINK-3959,1 52564U 22051AH  22336.84184099  .00000005  00000-0  18413-4 0  9997,2 52564  53.2167  89.0268 0001836  51.8975 308.2182 15.08845474 31299,6917.864000000001,95.437,540.999,538.4590000000002,0.0
52564.0,STARLINK-3959,PAYLOAD,2022-12-03 02:33:47,15.08843793,0.0001824,53.2167,87.8374,51.2289,308.8866,0.00012459,1.696e-05,0.0,0 STARLINK-3959,1 52564U 22051AH  22337.10679978  .00001696  00000-0  12459-3 0  9992,2 52564  53.2167  87.8374 0001824  51.2289 308.8866 15.08843793 31402,6917.869000000002,95.437,540.996,538.472,0.0
52564.0,STARLINK-3959,PAYLOAD,2022-12-03 13:41:29,15.0883643,0.0001877,53.2159,85.7558,49.3688,310.7467,9.8751e-05,1.284e-05,0.0,0 STARLINK-3959,1 52564U 22051AH  22337.57048563  .00001284  00000-0  98751-4 0  9996,2 52564  53.2159  85.7558 0001877  49.3688 310.7467 15.08836430 31479,6917.891,95.438,541.055,538.4580000000002,0.0
52564.0,STARLINK-3959,PAYLOAD,2022-12-03 16:52:16,15.08838773,0.0001803,53.2159,85.1611,50.2779,309.8372,0.00010307,1.353e-05,0.0,0 STARLINK-3959,1 52564U 22051AH  22337.70296455  .00001353  00000-0  10307-3 0  9993,2 52564  53.2159  85.1611 0001803  50.2779 309.8372 15.08838773 31425,6917.884,95.438,540.996,538.502,0.0
52564.0,STARLINK-3959,PAYLOAD,2022-12-04 02:24:34,15.08847412,0.0001862,53.2159,83.3769,48.7105,311.4047,0.00018048,2.586e-05,0.0,0 STARLINK-3959,1 52564U 22051AH  22338.10040040  .00002586  00000-0  18048-3 0  9994,2 52564  53.2159  83.3769 0001862  48.7105 311.4047 15.08847412 31551,6917.858,95.437,541.011,538.435,0.0
52564.0,STARLINK-3959,PAYLOAD,2022-12-04 13:32:16,15.0883897,0.0001898,53.216,81.2953,49.5197,310.596,5.544e-06,-2e-06,0.0,0 STARLINK-3959,1 52564U 22051AH  22338.56408489 -.00000200  00000-0  55440-5 0  9990,2 52564  53.2160  81.2953 0001898  49.5197 310.5960 15.08838970 31557,6917.884,95.438,541.062,538.436,0.0
52564.0,STARLINK-3959,PAYLOAD,2022-12-04 16:43:03,15.08840588,0.0001838,53.2168,80.7009,50.0721,310.0433,0.00013732,1.898e-05,0.0,0 STARLINK-3959,1 52564U 22051AH  22338.69656269  .00001898  00000-0  13732-3 0  9994,2 52564  53.2168  80.7009 0001838  50.0721 310.0433 15.08840588 31643,6917.879,95.438,541.015,538.472,0.0
52564.0,STARLINK-3959,PAYLOAD,2022-12-04 19:53:48,15.08846847,0.0001828,53.2168,80.1061,49.8265,310.2887,0.00016757,2.380000000000001e-05,0.0,0 STARLINK-3959,1 52564U 22051AH  22338.82903851  .00002380  00000-0  16757-3 0  9998,2 52564  53.2168  80.1061 0001828  49.8265 310.2887 15.08846847 31596,6917.859,95.437,540.989,538.46,0.0
52564.0,STARLINK-3959,PAYLOAD,2022-12-05 13:23:03,15.08850943,0.0001745,53.2161,76.8345,48.301,311.8131,0.00014338,1.995e-05,0.0,0 STARLINK-3959,1 52564U 22051AH  22339.55767609  .00001995  00000-0  14338-3 0  9992,2 52564  53.2161  76.8345 0001745  48.3010 311.8131 15.08850943 31700,6917.847,95.437,540.919,538.505,0.0
52564.0,STARLINK-3959,PAYLOAD,2022-12-05 18:09:12,15.08851824,0.0001783,53.2162,75.9432,42.933,317.1801,6.9238e-05,8.14e-06,0.0,0 STARLINK-3959,1 52564U 22051AH  22339.75639520  .00000814  00000-0  69238-4 0  9993,2 52564  53.2162  75.9432 0001783  42.9330 317.1801 15.08851824 31808,6917.844,95.437,540.943,538.476,0.0
52564.0,STARLINK-3959,PAYLOAD,2022-12-06 13:13:50,15.08832925,0.0001815,53.2164,72.3744,43.659,316.4546,-2.7676e-05,-7.28e-06,0.0,0 STARLINK-3959,1 52564U 22051AH  22340.55128400 -.00000728  00000-0 -27676-4 0  9999,2 52564  53.2164  72.3744 0001815  43.6590 316.4546 15.08832925 31853,6917.901999999999,95.438,541.023,538.511,0.0
52564.0,STARLINK-3959,PAYLOAD,2022-12-06 14:49:13,15.08832761,0.0001894,53.2164,72.0771,42.6396,317.4743,-0.0001571999999999,-2.789e-05,0.0,0 STARLINK-3959,1 52564U 22051AH  22340.61752218 -.00002789  00000-0 -15720-3 0  9991,2 52564  53.2164  72.0771 0001894  42.6396 317.4743 15.08832761 31937,6917.903,95.438,541.078,538.457,0.0
52564.0,STARLINK-3959,PAYLOAD,2022-12-06 21:10:47,15.088209900000004,0.0001912,53.2164,70.888,42.6853,317.4287,-0.00025946,-4.413e-05,0.0,0 STARLINK-3959,1 52564U 22051AH  22340.88249174 -.00004413  00000-0 -25946-3 0  9999,2 52564  53.2164  70.8880 0001912  42.6853 317.4287 15.08820990 31904,6917.938,95.439,541.126,538.481,0.0
52564.0,STARLINK-3959,PAYLOAD,2022-12-07 13:04:38,15.088308800000002,0.0001913,53.2165,67.9145,41.0671,319.0465,-7.2013e-06,-4.03e-06,0.0,0 STARLINK-3959,1 52564U 22051AH  22341.54489327 -.00000403  00000-0 -72013-5 0  9993,2 52564  53.2165  67.9145 0001913  41.0671 319.0465 15.08830880 32072,6917.908,95.438,541.097,538.45,0.0
52564.0,STARLINK-3959,PAYLOAD,2022-12-07 17:50:48,15.08841619,0.0001972,53.2165,67.0224,41.5772,318.5370000000001,0.00050034,7.684e-05,0.0,0 STARLINK-3959,1 52564U 22051AH  22341.74361329  .00007684  00000-0  50034-3 0  9999,2 52564  53.2165  67.0224 0001972  41.5772 318.5370 15.08841619 32030,6917.875,95.437,541.105,538.376,0.0
52564.0,STARLINK-3959,PAYLOAD,2022-12-08 04:58:30,15.08862648,0.0001938,53.2165,64.9409,41.184,318.9298,0.0013933,0.0002197,0.0,0 STARLINK-3959,1 52564U 22051AH  22342.20729169  .00021970  00000-0  13933-2 0  9991,2 52564  53.2165  64.9409 0001938  41.1840 318.9298 15.08862648 32178,6917.811,95.436,541.0169999999998,538.335,0.0
52564.0,STARLINK-3959,PAYLOAD,2022-12-08 12:55:25,15.08866784,0.0001955,53.2163,63.455,39.4556,320.6579,0.00082052,0.00012804,0.0,0 STARLINK-3959,1 52564U 22051AH  22342.53848738  .00012804  00000-0  82052-3 0  9996,2 52564  53.2163  63.4550 0001955  39.4556 320.6579 15.08866784 32155,6917.799,95.436,541.016,538.311,0.0
52564.0,STARLINK-3959,PAYLOAD,2022-12-08 17:41:34,15.08871344,0.0002008,53.2161,62.5629,37.7389,322.3744,0.00071941,0.0001119,0.0,0 STARLINK-3959,1 52564U 22051AH  22342.73720347  .00011190  00000-0  71941-3 0  9995,2 52564  53.2161  62.5629 0002008  37.7389 322.3744 15.08871344 32257,6917.785,95.436,541.039,538.26,0.0
52564.0,STARLINK-3959,PAYLOAD,2022-12-09 04:49:15,15.08875257,0.0001942,53.2159,60.4813,38.9249,321.1883,0.00092009,0.000144,0.0,0 STARLINK-3959,1 52564U 22051AH  22343.20087459  .00014400  00000-0  92009-3 0  9993,2 52564  53.2159  60.4813 0001942  38.9249 321.1883 15.08875257 32258,6917.773,95.435,540.981,538.294,0.0
52564.0,STARLINK-3959,PAYLOAD,2022-12-09 14:21:34,15.08834694,0.0002043,53.216,58.6968,34.1009,326.0114,-0.00043296,-7.171e-05,0.0,0 STARLINK-3959,1 52564U 22051AH  22343.59832036 -.00007171  00000-0 -43296-3 0  9997,2 52564  53.2160  58.6968 0002043  34.1009 326.0114 15.08834694 32380,6917.897,95.438,541.175,538.3480000000002,0.0
52564.0,STARLINK-3959,PAYLOAD,2022-12-10 06:15:28,15.08818508,0.0003753,53.2157,55.7229,44.5172,315.6122,0.00077038,0.00011987,0.0,0 STARLINK-3959,1 52564U 22051AH  22344.26074205  .00011987  00000-0  77038-3 0  9997,2 52564  53.2157  55.7229 0003753  44.5172 315.6122 15.08818508 32489,6917.946,95.439,542.4069999999998,537.215,0.0
52564.0,STARLINK-3959,PAYLOAD,2022-12-10 12:37:00,15.08816298,0.0002365,53.2158,54.5336,37.5646,322.5511,0.00012218,1.656e-05,0.0,0 STARLINK-3959,1 52564U 22051AH  22344.52570200  .00001656  00000-0  12218-3 0  9993,2 52564  53.2158  54.5336 0002365  37.5646 322.5511 15.08816298 32452,6917.953,95.439,541.4540000000002,538.182,0.0
52564.0,STARLINK-3959,PAYLOAD,2022-12-11 12:27:47,15.08858722,0.0002628999999999,53.2163,50.0764,34.0038,326.1123,0.00091072,0.00014243,0.0,0 STARLINK-3959,1 52564U 22051AH  22345.51929910  .00014243  00000-0  91072-3 0  9990,2 52564  53.2163  50.0764 0002629  34.0038 326.1123 15.08858722 32675,6917.823,95.436,541.507,537.869,0.0
52564.0,STARLINK-3959,PAYLOAD,2022-12-12 12:18:32,15.08852292,0.0002371,53.2162,45.6127,30.646,329.467,-6.5577e-05,-1.332e-05,0.0,0 STARLINK-3959,1 52564U 22051AH  22346.51288176 -.00001332  00000-0 -65577-4 0  9992,2 52564  53.2162  45.6127 0002371  30.6460 329.4670 15.08852292 32828,6917.843000000003,95.437,541.3480000000002,538.068,0.0
52564.0,STARLINK-3959,PAYLOAD,2022-12-12 13:53:56,15.08853391,0.0002353,53.2162,45.315,30.1916,329.9211,0.00010885,1.445e-05,0.0,0 STARLINK-3959,1 52564U 22051AH  22346.57912145  .00001445  00000-0  10885-3 0  9992,2 52564  53.2162  45.3150 0002353  30.1916 329.9211 15.08853391 32762,6917.839,95.437,541.332,538.077,0.0
52564.0,STARLINK-3959,PAYLOAD,2022-12-13 10:33:56,15.0885033,0.0002114,53.2174,41.4487,31.5967,328.5152,0.00045812,7.012e-05,0.0,0 STARLINK-3959,1 52564U 22051AH  22347.44023860  .00007012  00000-0  45812-3 0  9990,2 52564  53.2174  41.4487 0002114  31.5967 328.5152 15.08850330 32894,6917.849,95.437,541.1759999999998,538.251,0.0
52564.0,STARLINK-3959,PAYLOAD,2022-12-14 04:03:11,15.08833551,0.000242,53.2162,38.1784,32.1871,327.9269,-7.795899999999999e-05,-1.529e-05,0.0,0 STARLINK-3959,1 52564U 22051AH  22348.16888464 -.00001529  00000-0 -77959-4 0  9996,2 52564  53.2162  38.1784 0002420  32.1871 327.9269 15.08833551 33074,6917.9,95.438,541.439,538.091,0.0
